[{"OBJECT_NAME":"ONEWEB-0033","OBJECT_ID":"2020-008M","EPOCH":"2026-05-01T04:03:52.010208","MEAN_MOTION":13.10371688,"ECCENTRICITY":0.000176,"INCLINATION":87.8849,"RA_OF_ASC_NODE":45.6345,"ARG_OF_PERICENTER":62.4718,"MEAN_ANOMALY":297.6588,"EPHEMERIS_TYPE":0,"CLASSIFICATION_TYPE":"U","NORAD_CAT_ID":45142,"ELEMENT_SET_NO":999,"REV_AT_EPOCH":30205,"BSTAR":0.0017697,"MEAN_MOTION_DOT":6.3e-06,"MEAN_MOTION_DDOT":0.0},{"OBJECT_NAME":"ONEWEB-0035","OBJECT_ID":"2020-008N","EPOCH":"2026-05-01T06:35:09.334176","MEAN_MOTION":13.10884486,"ECCENTRICITY":0.0001814,"INCLINATION":87.885,"RA_OF_ASC_NODE":45.6102,"ARG_OF_PERICENTER":74.646,"MEAN_ANOMALY":285.4868,"EPHEMERIS_TYPE":0,"CLASSIFICATION_TYPE":"U","NORAD_CAT_ID":45143,"ELEMENT_SET_NO":999,"REV_AT_EPOCH":30179,"BSTAR":-0.0014221000000000001,"MEAN_MOTION_DOT":-4.87e-06,"MEAN_MOTION_DDOT":0.0},{"OBJECT_NAME":"ONEWEB-0036","OBJECT_ID":"2020-008P","EPOCH":"2026-05-01T05:20:03.681312","MEAN_MOTION":13.09823165,"ECCENTRICITY":0.0001929,"INCLINATION":87.8872,"RA_OF_ASC_NODE":45.6121,"ARG_OF_PERICENTER":85.2102,"MEAN_ANOMALY":274.9245,"EPHEMERIS_TYPE":0,"CLASSIFICATION_TYPE":"U","NORAD_CAT_ID":45144,"ELEMENT_SET_NO":999,"REV_AT_EPOCH":30221,"BSTAR":0.0006445800000000001,"MEAN_MOTION_DOT":2.36e-06,"MEAN_MOTION_DDOT":0.0},{"OBJECT_NAME":"ONEWEB-0038","OBJECT_ID":"2020-008Q","EPOCH":"2026-05-01T04:04:53.555520","MEAN_MOTION":13.11419599,"ECCENTRICITY":0.0003365,"INCLINATION":87.8942,"RA_OF_ASC_NODE":30.4194,"ARG_OF_PERICENTER":62.314,"MEAN_ANOMALY":297.8329,"EPHEMERIS_TYPE":0,"CLASSIFICATION_TYPE":"U","NORAD_CAT_ID":45145,"ELEMENT_SET_NO":999,"REV_AT_EPOCH":30416,"BSTAR":-0.00075371,"MEAN_MOTION_DOT":-2.54e-06,"MEAN_MOTION_DDOT":0.0},{"OBJECT_NAME":"ONEWEB-0039","OBJECT_ID":"2020-008R","EPOCH":"2026-05-01T04:08:37.950144","MEAN_MOTION":13.10370141,"ECCENTRICITY":0.000223,"INCLINATION":87.8857,"RA_OF_ASC_NODE":45.6222,"ARG_OF_PERICENTER":88.6731,"MEAN_ANOMALY":271.4651,"EPHEMERIS_TYPE":0,"CLASSIFICATION_TYPE":"U","NORAD_CAT_ID":45146,"ELEMENT_SET_NO":999,"REV_AT_EPOCH":30200,"BSTAR":0.0013215,"MEAN_MOTION_DOT":4.74e-06,"MEAN_MOTION_DDOT":0.0},{"OBJECT_NAME":"ONEWEB-0040","OBJECT_ID":"2020-008S","EPOCH":"2026-05-01T05:49:01.996608","MEAN_MOTION":13.10371967,"ECCENTRICITY":0.0001948,"INCLINATION":87.8852,"RA_OF_ASC_NODE":45.6207,"ARG_OF_PERICENTER":77.3144,"MEAN_ANOMALY":282.8201,"EPHEMERIS_TYPE":0,"CLASSIFICATION_TYPE":"U","NORAD_CAT_ID":45147,"ELEMENT_SET_NO":999,"REV_AT_EPOCH":30171,"BSTAR":0.0018862000000000002,"MEAN_MOTION_DOT":6.71e-06,"MEAN_MOTION_DDOT":0.0},{"OBJECT_NAME":"ONEWEB-0043","OBJECT_ID":"2020-008U","EPOCH":"2026-05-01T05:51:25.052544","MEAN_MOTION":13.10371,"ECCENTRICITY":0.0002305,"INCLINATION":87.8856,"RA_OF_ASC_NODE":45.6064,"ARG_OF_PERICENTER":89.9166,"MEAN_ANOMALY":270.2225,"EPHEMERIS_TYPE":0,"CLASSIFICATION_TYPE":"U","NORAD_CAT_ID":45149,"ELEMENT_SET_NO":999,"REV_AT_EPOCH":30203,"BSTAR":0.0018368000000000002,"MEAN_MOTION_DOT":6.54e-06,"MEAN_MOTION_DDOT":0.0},{"OBJECT_NAME":"ONEWEB-0044","OBJECT_ID":"2020-008V","EPOCH":"2026-05-01T06:32:02.300640","MEAN_MOTION":13.10372536,"ECCENTRICITY":0.0002048,"INCLINATION":87.8862,"RA_OF_ASC_NODE":45.5986,"ARG_OF_PERICENTER":81.3303,"MEAN_ANOMALY":278.8056,"EPHEMERIS_TYPE":0,"CLASSIFICATION_TYPE":"U","NORAD_CAT_ID":45150,"ELEMENT_SET_NO":999,"REV_AT_EPOCH":30233,"BSTAR":-0.0015984,"MEAN_MOTION_DOT":-5.45e-06,"MEAN_MOTION_DDOT":0.0},{"OBJECT_NAME":"ONEWEB-0045","OBJECT_ID":"2020-008W","EPOCH":"2026-05-01T03:57:21.806208","MEAN_MOTION":13.11419266,"ECCENTRICITY":0.0001912,"INCLINATION":87.8936,"RA_OF_ASC_NODE":30.4056,"ARG_OF_PERICENTER":80.2045,"MEAN_ANOMALY":279.9299,"EPHEMERIS_TYPE":0,"CLASSIFICATION_TYPE":"U","NORAD_CAT_ID":45151,"ELEMENT_SET_NO":999,"REV_AT_EPOCH":30424,"BSTAR":-0.0012626000000000002,"MEAN_MOTION_DOT":-4.35e-06,"MEAN_MOTION_DDOT":0.0},{"OBJECT_NAME":"ONEWEB-0047","OBJECT_ID":"2020-008X","EPOCH":"2026-05-01T06:22:28.317792","MEAN_MOTION":13.1037082,"ECCENTRICITY":0.0001919,"INCLINATION":87.8858,"RA_OF_ASC_NODE":45.6,"ARG_OF_PERICENTER":73.3627,"MEAN_ANOMALY":286.7711,"EPHEMERIS_TYPE":0,"CLASSIFICATION_TYPE":"U","NORAD_CAT_ID":45152,"ELEMENT_SET_NO":999,"REV_AT_EPOCH":30205,"BSTAR":-0.00092787,"MEAN_MOTION_DOT":-3.11e-06,"MEAN_MOTION_DDOT":0.0},{"OBJECT_NAME":"ONEWEB-0048","OBJECT_ID":"2020-008Y","EPOCH":"2026-05-01T06:15:18.248832","MEAN_MOTION":13.10369635,"ECCENTRICITY":0.00019,"INCLINATION":87.885,"RA_OF_ASC_NODE":45.6253,"ARG_OF_PERICENTER":76.6832,"MEAN_ANOMALY":283.4507,"EPHEMERIS_TYPE":0,"CLASSIFICATION_TYPE":"U","NORAD_CAT_ID":45153,"ELEMENT_SET_NO":999,"REV_AT_EPOCH":30166,"BSTAR":2.7934e-05,"MEAN_MOTION_DOT":2.2e-07,"MEAN_MOTION_DDOT":0.0},{"OBJECT_NAME":"ONEWEB-0049","OBJECT_ID":"2020-008Z","EPOCH":"2026-05-01T06:19:53.342112","MEAN_MOTION":13.10370942,"ECCENTRICITY":0.0001661,"INCLINATION":87.8852,"RA_OF_ASC_NODE":45.6131,"ARG_OF_PERICENTER":91.5187,"MEAN_ANOMALY":268.6131,"EPHEMERIS_TYPE":0,"CLASSIFICATION_TYPE":"U","NORAD_CAT_ID":45154,"ELEMENT_SET_NO":999,"REV_AT_EPOCH":30188,"BSTAR":-0.0005942100000000001,"MEAN_MOTION_DOT":-1.95e-06,"MEAN_MOTION_DDOT":0.0},{"OBJECT_NAME":"ONEWEB-0051","OBJECT_ID":"2020-008AA","EPOCH":"2026-05-01T03:54:54.775008","MEAN_MOTION":13.11415874,"ECCENTRICITY":0.0001849,"INCLINATION":87.8929,"RA_OF_ASC_NODE":30.4167,"ARG_OF_PERICENTER":79.5616,"MEAN_ANOMALY":280.5721,"EPHEMERIS_TYPE":0,"CLASSIFICATION_TYPE":"U","NORAD_CAT_ID":45155,"ELEMENT_SET_NO":999,"REV_AT_EPOCH":30492,"BSTAR":-0.0010731,"MEAN_MOTION_DOT":-3.68e-06,"MEAN_MOTION_DDOT":0.0},{"OBJECT_NAME":"ONEWEB-0052","OBJECT_ID":"2020-008AB","EPOCH":"2026-05-01T06:49:08.577120","MEAN_MOTION":13.10496662,"ECCENTRICITY":0.0001722,"INCLINATION":87.8862,"RA_OF_ASC_NODE":45.5944,"ARG_OF_PERICENTER":92.4592,"MEAN_ANOMALY":267.6733,"EPHEMERIS_TYPE":0,"CLASSIFICATION_TYPE":"U","NORAD_CAT_ID":45156,"ELEMENT_SET_NO":999,"REV_AT_EPOCH":30179,"BSTAR":-0.0015989,"MEAN_MOTION_DOT":-5.46e-06,"MEAN_MOTION_DDOT":0.0},{"OBJECT_NAME":"ONEWEB-0053","OBJECT_ID":"2020-008AC","EPOCH":"2026-05-01T05:46:38.873280","MEAN_MOTION":13.10372716,"ECCENTRICITY":0.0002109,"INCLINATION":87.8853,"RA_OF_ASC_NODE":45.6263,"ARG_OF_PERICENTER":92.1971,"MEAN_ANOMALY":267.9398,"EPHEMERIS_TYPE":0,"CLASSIFICATION_TYPE":"U","NORAD_CAT_ID":45157,"ELEMENT_SET_NO":999,"REV_AT_EPOCH":30176,"BSTAR":0.0019478000000000002,"MEAN_MOTION_DOT":6.93e-06,"MEAN_MOTION_DDOT":0.0},{"OBJECT_NAME":"ONEWEB-0054","OBJECT_ID":"2020-008AD","EPOCH":"2026-05-01T06:36:48.334752","MEAN_MOTION":13.10372497,"ECCENTRICITY":0.0001809,"INCLINATION":87.886,"RA_OF_ASC_NODE":45.5978,"ARG_OF_PERICENTER":79.5344,"MEAN_ANOMALY":280.5987,"EPHEMERIS_TYPE":0,"CLASSIFICATION_TYPE":"U","NORAD_CAT_ID":45158,"ELEMENT_SET_NO":999,"REV_AT_EPOCH":30188,"BSTAR":-0.0017818,"MEAN_MOTION_DOT":-6.09e-06,"MEAN_MOTION_DDOT":0.0}]