ONEWEB-0033             
1 45142U 20008M   26121.16935197  .00000630  00000+0  17697-2 0  9999
2 45142  87.8849  45.6345 0001760  62.4718 297.6588 13.10371688302054
ONEWEB-0035             
1 45143U 20008N   26121.27441359 -.00000487  00000+0 -14221-2 0  9996
2 45143  87.8850  45.6102 0001814  74.6460 285.4868 13.10884486301798
ONEWEB-0036             
1 45144U 20008P   26121.22226483  .00000236  00000+0  64458-3 0  9999
2 45144  87.8872  45.6121 0001929  85.2102 274.9245 13.09823165302217
ONEWEB-0038             
1 45145U 20008Q   26121.17006430 -.00000254  00000+0 -75371-3 0  9990
2 45145  87.8942  30.4194 0003365  62.3140 297.8329 13.11419599304160
ONEWEB-0039             
1 45146U 20008R   26121.17266146  .00000474  00000+0  13215-2 0  9993
2 45146  87.8857  45.6222 0002230  88.6731 271.4651 13.10370141302008
ONEWEB-0040             
1 45147U 20008S   26121.24238422  .00000671  00000+0  18862-2 0  9990
2 45147  87.8852  45.6207 0001948  77.3144 282.8201 13.10371967301716
ONEWEB-0043             
1 45149U 20008U   26121.24403996  .00000654  00000+0  18368-2 0  9994
2 45149  87.8856  45.6064 0002305  89.9166 270.2225 13.10371000302035
ONEWEB-0044             
1 45150U 20008V   26121.27224885 -.00000545  00000+0 -15984-2 0  9999
2 45150  87.8862  45.5986 0002048  81.3303 278.8056 13.10372536302333
ONEWEB-0045             
1 45151U 20008W   26121.16483572 -.00000435  00000+0 -12626-2 0  9996
2 45151  87.8936  30.4056 0001912  80.2045 279.9299 13.11419266304243
ONEWEB-0047             
1 45152U 20008X   26121.26560553 -.00000311  00000+0 -92787-3 0  9993
2 45152  87.8858  45.6000 0001919  73.3627 286.7711 13.10370820302053
ONEWEB-0048             
1 45153U 20008Y   26121.26062788  .00000022  00000+0  27934-4 0  9991
2 45153  87.8850  45.6253 0001900  76.6832 283.4507 13.10369635301665
ONEWEB-0049             
1 45154U 20008Z   26121.26381183 -.00000195  00000+0 -59421-3 0  9993
2 45154  87.8852  45.6131 0001661  91.5187 268.6131 13.10370942301881
ONEWEB-0051             
1 45155U 20008AA  26121.16313397 -.00000368  00000+0 -10731-2 0  9997
2 45155  87.8929  30.4167 0001849  79.5616 280.5721 13.11415874304920
ONEWEB-0052             
1 45156U 20008AB  26121.28412705 -.00000546  00000+0 -15989-2 0  9992
2 45156  87.8862  45.5944 0001722  92.4592 267.6733 13.10496662301798
ONEWEB-0053             
1 45157U 20008AC  26121.24072770  .00000693  00000+0  19478-2 0  9991
2 45157  87.8853  45.6263 0002109  92.1971 267.9398 13.10372716301762
ONEWEB-0054             
1 45158U 20008AD  26121.27555943 -.00000609  00000+0 -17818-2 0  9998
2 45158  87.8860  45.5978 0001809  79.5344 280.5987 13.10372497301886
